{"fetched_at": "2026-06-04T18:22:40.362470+00:00", "line1": "1 66666U 25276A   26154.93856390  .00001826  00000+0  14841-3 0  9990", "line2": "2 66666  97.6542 229.3822 0004439 323.4614  36.6306 15.00812054 28073"}
{"fetched_at": "2026-06-22T01:52:53.873875+00:00", "line1": "1 66666U 25276A   26171.20630524  .00001172  00000+0  96828-4 0  9998", "line2": "2 66666  97.6546 245.4062 0002663 247.3893 112.7050 15.00860579 30511"}
